{
    "satellites": [
        {
            "name": "starlink368",
            "title": "Starlink-368 (G10-33)",
            "tle": [
                "1 72001C 26055B   26078.48381921  .01084400  00000+0  15554-2 0    08",
                "2 72001  53.1605 232.7671 0009821 272.6226 353.1415 16.04252778    12"
            ],
            "stdMag": 5,
            "noradId": "72001",
            "intDes": null,
            "tleUrl": "http://celestrak.org/NORAD/elements/supplemental/sup-gp.php?FILE=starlink-g10-33&FORMAT=tle",
            "launchDate": "2026-03-19T14:20:10.000Z",
            "active": true
        },
        {
            "name": "starlink367",
            "title": "Starlink-367 (G10-46) (new)",
            "tle": [
                "1 72001C 26054B   26076.60368194  .00998310  00000+0  13615-2 0    05",
                "2 72001  53.1609 274.0518 0008324 282.5602 343.4293 16.05131210    14"
            ],
            "stdMag": 5,
            "noradId": "70161",
            "intDes": null,
            "tleUrl": "http://celestrak.org/NORAD/elements/supplemental/sup-gp.php?FILE=starlink&FORMAT=tle",
            "launchDate": "2026-03-17T13:27:34.000Z",
            "active": true
        },
        {
            "name": "starlink366",
            "title": "Starlink-366 (G17-24) (new)",
            "tle": [
                "1 72001C 26053B   26076.26460139  .01272100  00000+0  14047-2 0    01",
                "2 72001  97.2904 310.4777 0010568 272.0902 103.4843 16.09073723    16"
            ],
            "stdMag": 5,
            "noradId": "70184",
            "intDes": null,
            "tleUrl": "http://celestrak.org/NORAD/elements/supplemental/sup-gp.php?FILE=starlink&FORMAT=tle",
            "launchDate": "2026-03-17T05:19:09.000Z",
            "active": true
        },
        {
            "name": "starlink365",
            "title": "Starlink-365 (G10-48) (new)",
            "tle": [
                "1 70104C 26050A   26078.23937500 -.02060900  00000+0 -48299-2 0   787",
                "2 70104  53.1614 234.2444 0000598  65.9631 190.5106 15.98322533    13"
            ],
            "stdMag": 5,
            "noradId": "70104",
            "intDes": null,
            "tleUrl": "http://celestrak.org/NORAD/elements/supplemental/sup-gp.php?FILE=starlink&FORMAT=tle",
            "launchDate": "2026-03-14T12:37:10.000Z",
            "active": true
        },
        {
            "name": "starlink364",
            "title": "Starlink-364 (G17-31) (new)",
            "tle": [
                "1 70079C 26049A   26078.23590278 -.01571400  00000+0 -29882-2 0   781",
                "2 70079  97.2798  97.7657 0001779  72.7023 113.9364 16.02322911    18"
            ],
            "stdMag": 5,
            "noradId": "70079",
            "intDes": null,
            "tleUrl": "http://celestrak.org/NORAD/elements/supplemental/sup-gp.php?FILE=starlink&FORMAT=tle",
            "launchDate": "2026-03-13T14:57:59.000Z",
            "active": true
        }
    ],
    "config": {}
}